{"type": "FeatureCollection", "features": [{"type": "Feature", "properties": {"norad_id": 25590, "name": "COSMOS 2361", "group": "musson", "lat": -56.581229773257064, "lon": 174.3988182723189, "alt_km": 975.2636367999721, "timestamp": "2025-12-13T10:41:26.035670+00:00", "meta": {"OBJECT_NAME": "COSMOS 2361", "OBJECT_ID": "1998-076A", "EPOCH": "2025-12-12T23:19:22.425312", "MEAN_MOTION": 13.73217544, "ECCENTRICITY": 0.00300549, "INCLINATION": 82.9339, "RA_OF_ASC_NODE": 343.9147, "ARG_OF_PERICENTER": 264.9245, "MEAN_ANOMALY": 152.1878, "EPHEMERIS_TYPE": 0, "CLASSIFICATION_TYPE": "U", "NORAD_CAT_ID": 25590, "ELEMENT_SET_NO": 999, "REV_AT_EPOCH": 35114, "BSTAR": 9.4131968e-05, "MEAN_MOTION_DOT": 1.02e-06, "MEAN_MOTION_DDOT": 0}, "tle": {"line1": "1 25590U 98076A   25346.97178733  .00000102  00000+0  94132-4 0  9991", "line2": "2 25590  82.9339 343.9147 0030054 264.9245 152.1878 13.73217544351145"}}, "geometry": {"type": "Point", "coordinates": [174.3988182723189, -56.581229773257064]}}, {"type": "Feature", "properties": {"norad_id": 26818, "name": "COSMOS 2378", "group": "musson", "lat": -46.947551027141984, "lon": -8.434972564799283, "alt_km": 999.5092914094321, "timestamp": "2025-12-13T10:41:26.035691+00:00", "meta": {"OBJECT_NAME": "COSMOS 2378", "OBJECT_ID": "2001-023A", "EPOCH": "2025-12-13T00:42:49.582656", "MEAN_MOTION": 13.74142032, "ECCENTRICITY": 0.00324156, "INCLINATION": 82.9272, "RA_OF_ASC_NODE": 359.5098, "ARG_OF_PERICENTER": 204.0668, "MEAN_ANOMALY": 212.9749, "EPHEMERIS_TYPE": 0, "CLASSIFICATION_TYPE": "U", "NORAD_CAT_ID": 26818, "ELEMENT_SET_NO": 999, "REV_AT_EPOCH": 22927, "BSTAR": 6.5833607e-05, "MEAN_MOTION_DOT": 7.7e-07, "MEAN_MOTION_DDOT": 0}, "tle": {"line1": "1 26818U 01023A   25347.02974054  .00000077  00000+0  65834-4 0  9996", "line2": "2 26818  82.9272 359.5098 0032415 204.0668 212.9749 13.74142032229270"}}, "geometry": {"type": "Point", "coordinates": [-8.434972564799283, -46.947551027141984]}}, {"type": "Feature", "properties": {"norad_id": 27436, "name": "COSMOS 2389", "group": "musson", "lat": 17.42534796711536, "lon": 124.23639806283441, "alt_km": 989.5610800966415, "timestamp": "2025-12-13T10:41:26.035706+00:00", "meta": {"OBJECT_NAME": "COSMOS 2389", "OBJECT_ID": "2002-026A", "EPOCH": "2025-12-12T23:45:55.770048", "MEAN_MOTION": 13.75154681, "ECCENTRICITY": 0.00476101, "INCLINATION": 82.9503, "RA_OF_ASC_NODE": 306.7991, "ARG_OF_PERICENTER": 60.061, "MEAN_ANOMALY": 9.4593, "EPHEMERIS_TYPE": 0, "CLASSIFICATION_TYPE": "U", "NORAD_CAT_ID": 27436, "ELEMENT_SET_NO": 999, "REV_AT_EPOCH": 18152, "BSTAR": 8.7448941e-05, "MEAN_MOTION_DOT": 1e-06, "MEAN_MOTION_DDOT": 0}, "tle": {"line1": "1 27436U 02026A   25346.99022882  .00000100  00000+0  87449-4 0  9998", "line2": "2 27436  82.9503 306.7991 0047610  60.0610   9.4593 13.75154681181525"}}, "geometry": {"type": "Point", "coordinates": [124.23639806283441, 17.42534796711536]}}, {"type": "Feature", "properties": {"norad_id": 27818, "name": "COSMOS 2398", "group": "musson", "lat": 71.2084915325963, "lon": 70.84726985759579, "alt_km": 960.1626115866811, "timestamp": "2025-12-13T10:41:26.035718+00:00", "meta": {"OBJECT_NAME": "COSMOS 2398", "OBJECT_ID": "2003-023A", "EPOCH": "2025-12-12T22:15:34.629696", "MEAN_MOTION": 13.72385763, "ECCENTRICITY": 0.00325849, "INCLINATION": 82.9485, "RA_OF_ASC_NODE": 272.5599, "ARG_OF_PERICENTER": 111.2927, "MEAN_ANOMALY": 318.5835, "EPHEMERIS_TYPE": 0, "CLASSIFICATION_TYPE": "U", "NORAD_CAT_ID": 27818, "ELEMENT_SET_NO": 999, "REV_AT_EPOCH": 12819, "BSTAR": 7.4402366e-05, "MEAN_MOTION_DOT": 8.4e-07, "MEAN_MOTION_DDOT": 0}, "tle": {"line1": "1 27818U 03023A   25346.92748414  .00000084  00000+0  74402-4 0  9995", "line2": "2 27818  82.9485 272.5599 0032584 111.2927 318.5835 13.72385763128197"}}, "geometry": {"type": "Point", "coordinates": [70.84726985759579, 71.2084915325963]}}, {"type": "Feature", "properties": {"norad_id": 28380, "name": "COSMOS 2407", "group": "musson", "lat": -46.93040459975365, "lon": -155.2251923796749, "alt_km": 988.9078840635566, "timestamp": "2025-12-13T10:41:26.035729+00:00", "meta": {"OBJECT_NAME": "COSMOS 2407", "OBJECT_ID": "2004-028A", "EPOCH": "2025-12-13T00:58:51.959424", "MEAN_MOTION": 13.76313686, "ECCENTRICITY": 0.00403189, "INCLINATION": 82.9606, "RA_OF_ASC_NODE": 212.6698, "ARG_OF_PERICENTER": 54.0303, "MEAN_ANOMALY": 55.7512, "EPHEMERIS_TYPE": 0, "CLASSIFICATION_TYPE": "U", "NORAD_CAT_ID": 28380, "ELEMENT_SET_NO": 999, "REV_AT_EPOCH": 7427, "BSTAR": 6.7225593e-05, "MEAN_MOTION_DOT": 8.1e-07, "MEAN_MOTION_DDOT": 0}, "tle": {"line1": "1 28380U 04028A   25347.04087916  .00000081  00000+0  67226-4 0  9996", "line2": "2 28380  82.9606 212.6698 0040318  54.0303  55.7512 13.76313686 74278"}}, "geometry": {"type": "Point", "coordinates": [-155.2251923796749, -46.93040459975365]}}, {"type": "Feature", "properties": {"norad_id": 28521, "name": "COSMOS 2414", "group": "musson", "lat": -65.51038786580742, "lon": 19.891930732653982, "alt_km": 952.7473801218857, "timestamp": "2025-12-13T10:41:26.035740+00:00", "meta": {"OBJECT_NAME": "COSMOS 2414", "OBJECT_ID": "2005-002A", "EPOCH": "2025-12-12T23:07:44.524992", "MEAN_MOTION": 13.87902886, "ECCENTRICITY": 0.00409125, "INCLINATION": 82.9491, "RA_OF_ASC_NODE": 184.4906, "ARG_OF_PERICENTER": 139.0442, "MEAN_ANOMALY": 221.3807, "EPHEMERIS_TYPE": 0, "CLASSIFICATION_TYPE": "U", "NORAD_CAT_ID": 28521, "ELEMENT_SET_NO": 999, "REV_AT_EPOCH": 5798, "BSTAR": 7.1566352e-05, "MEAN_MOTION_DOT": 1.02e-06, "MEAN_MOTION_DDOT": 0}, "tle": {"line1": "1 28521U 05002A   25346.96370978  .00000102  00000+0  71566-4 0  9995", "line2": "2 28521  82.9491 184.4906 0040912 139.0442 221.3807 13.87902886 57988"}}, "geometry": {"type": "Point", "coordinates": [19.891930732653982, -65.51038786580742]}}, {"type": "Feature", "properties": {"norad_id": 32052, "name": "COSMOS 2429", "group": "musson", "lat": -12.71337586800674, "lon": -18.804208786493223, "alt_km": 966.3921851568475, "timestamp": "2025-12-13T10:41:26.035751+00:00", "meta": {"OBJECT_NAME": "COSMOS 2429", "OBJECT_ID": "2007-038A", "EPOCH": "2025-12-13T00:16:29.593632", "MEAN_MOTION": 13.75149392, "ECCENTRICITY": 0.00392224, "INCLINATION": 82.9804, "RA_OF_ASC_NODE": 343.1084, "ARG_OF_PERICENTER": 37.1258, "MEAN_ANOMALY": 323.26, "EPHEMERIS_TYPE": 0, "CLASSIFICATION_TYPE": "U", "NORAD_CAT_ID": 32052, "ELEMENT_SET_NO": 999, "REV_AT_EPOCH": 91606, "BSTAR": 7.9965016e-05, "MEAN_MOTION_DOT": 9.2e-07, "MEAN_MOTION_DDOT": 0}, "tle": {"line1": "1 32052U 07038A   25347.01145363  .00000092  00000+0  79965-4 0  9994", "line2": "2 32052  82.9804 343.1084 0039222  37.1258 323.2600 13.75149392916064"}}, "geometry": {"type": "Point", "coordinates": [-18.804208786493223, -12.71337586800674]}}, {"type": "Feature", "properties": {"norad_id": 35635, "name": "COSMOS 2454", "group": "musson", "lat": -58.19633612785947, "lon": 156.60813042843475, "alt_km": 945.6897095076738, "timestamp": "2025-12-13T10:41:26.035762+00:00", "meta": {"OBJECT_NAME": "COSMOS 2454", "OBJECT_ID": "2009-039A", "EPOCH": "2025-12-12T23:27:14.798304", "MEAN_MOTION": 13.89928705, "ECCENTRICITY": 0.00204304, "INCLINATION": 82.9554, "RA_OF_ASC_NODE": 168.465, "ARG_OF_PERICENTER": 73.1068, "MEAN_ANOMALY": 46.8884, "EPHEMERIS_TYPE": 0, "CLASSIFICATION_TYPE": "U", "NORAD_CAT_ID": 35635, "ELEMENT_SET_NO": 999, "REV_AT_EPOCH": 83153, "BSTAR": 8.512832e-05, "MEAN_MOTION_DOT": 1.21e-06, "MEAN_MOTION_DDOT": 0}, "tle": {"line1": "1 35635U 09039A   25346.97725461  .00000121  00000+0  85128-4 0  9995", "line2": "2 35635  82.9554 168.4650 0020430  73.1068  46.8884 13.89928705831531"}}, "geometry": {"type": "Point", "coordinates": [156.60813042843475, -58.19633612785947]}}, {"type": "Feature", "properties": {"norad_id": 36519, "name": "COSMOS 2463", "group": "musson", "lat": -63.890534454321724, "lon": 11.59358380885184, "alt_km": 975.5382205210599, "timestamp": "2025-12-13T10:41:26.035773+00:00", "meta": {"OBJECT_NAME": "COSMOS 2463", "OBJECT_ID": "2010-017A", "EPOCH": "2025-12-12T21:50:49.830144", "MEAN_MOTION": 13.71649183, "ECCENTRICITY": 0.00347944, "INCLINATION": 82.9613, "RA_OF_ASC_NODE": 26.5874, "ARG_OF_PERICENTER": 287.576, "MEAN_ANOMALY": 246.6116, "EPHEMERIS_TYPE": 0, "CLASSIFICATION_TYPE": "U", "NORAD_CAT_ID": 36519, "ELEMENT_SET_NO": 999, "REV_AT_EPOCH": 78239, "BSTAR": 5.5201203e-05, "MEAN_MOTION_DOT": 6.5e-07, "MEAN_MOTION_DDOT": 0}, "tle": {"line1": "1 36519U 10017A   25346.91029896  .00000065  00000+0  55201-4 0  9994", "line2": "2 36519  82.9613  26.5874 0034794 287.5760 246.6116 13.71649183782397"}}, "geometry": {"type": "Point", "coordinates": [11.59358380885184, -63.890534454321724]}}]}